{
  "norad_id": 67530,
  "name": "HULIANWANG DIGUI-154",
  "history": [
    {
      "epoch": "2026-03-28T19:12:45.010944Z",
      "apogee_km": 1149.3863929488161,
      "perigee_km": 1149.244274648755,
      "latitude_deg": -5.136202280687468e-06,
      "longitude_deg": 169.1865847627344,
      "height_km": 1149.8850817881803,
      "semi_major_axis_km": 7527.452333798786,
      "eccentricity": 9.44e-06,
      "inclination_deg": 50.0061,
      "raan_deg": 283.5899,
      "arg_perigee_deg": 152.8626,
      "mean_anomaly_deg": 207.2251,
      "mean_motion_rev_day": 13.29323679
    },
    {
      "epoch": "2026-03-28T22:49:16.046688Z",
      "apogee_km": 1149.3905856714264,
      "perigee_km": 1149.2400366252032,
      "latitude_deg": 6.55272395549305e-05,
      "longitude_deg": 114.3698272830933,
      "height_km": 1149.8894922091608,
      "semi_major_axis_km": 7527.452311148314,
      "eccentricity": 1e-05,
      "inclination_deg": 50.0061,
      "raan_deg": 283.0506,
      "arg_perigee_deg": 154.0411,
      "mean_anomaly_deg": 206.0467,
      "mean_motion_rev_day": 13.29323685
    }
  ]
}